[{"OBJECT_NAME":"STARLINK-35404","OBJECT_ID":"2025-253T","EPOCH":"2026-03-09T09:59:38.111712","MEAN_MOTION":15.2759481,"ECCENTRICITY":0.00011728,"INCLINATION":42.9989,"RA_OF_ASC_NODE":213.9611,"ARG_OF_PERICENTER":281.8139,"MEAN_ANOMALY":78.2581,"EPHEMERIS_TYPE":0,"CLASSIFICATION_TYPE":"U","NORAD_CAT_ID":66336,"ELEMENT_SET_NO":999,"REV_AT_EPOCH":2020,"BSTAR":0.0010355503,"MEAN_MOTION_DOT":0.00028356,"MEAN_MOTION_DDOT":0},{"OBJECT_NAME":"KUIPER-00274","OBJECT_ID":"2026-030AE","EPOCH":"2026-03-09T22:00:01.999584","MEAN_MOTION":15.29896925,"ECCENTRICITY":0.00182929,"INCLINATION":51.8831,"RA_OF_ASC_NODE":218.6923,"ARG_OF_PERICENTER":71.2033,"MEAN_ANOMALY":115.2248,"EPHEMERIS_TYPE":0,"CLASSIFICATION_TYPE":"U","NORAD_CAT_ID":67792,"ELEMENT_SET_NO":999,"REV_AT_EPOCH":410,"BSTAR":0.0017989756,"MEAN_MOTION_DOT":0.00053102,"MEAN_MOTION_DDOT":0}]
